{
  "type": "FeatureCollection",
  "features": [
    {
      "type": "Feature",
      "properties": {
        "norad_id": 43262,
        "name": "GAOFEN-1 04",
        "group": "resource",
        "lat": -11.39574306034208,
        "lon": -124.48125257141686,
        "alt_km": 645.2170156329894,
        "timestamp": "2025-12-25T07:41:09.380593+00:00",
        "meta_object_name": "GAOFEN-1 04",
        "meta_object_id": "2018-031D",
        "meta_epoch": "2025-12-24T22:41:21.077376",
        "meta_mean_motion": 14.76431124,
        "meta_eccentricity": 5.433e-05,
        "meta_inclination": 98.0788,
        "meta_ra_of_asc_node": 56.7844,
        "meta_arg_of_pericenter": 63.432,
        "meta_mean_anomaly": 296.6945,
        "meta_ephemeris_type": 0,
        "meta_classification_type": "U",
        "meta_norad_cat_id": 43262,
        "meta_element_set_no": 999,
        "meta_rev_at_epoch": 41697,
        "meta_bstar": 0.00018384139,
        "meta_mean_motion_dot": 1.227e-05,
        "meta_mean_motion_ddot": 0,
        "tle_line1": "1 43262U 18031D   25358.94538284  .00001227  00000+0  18384-3 0  9994",
        "tle_line2": "2 43262  98.0788  56.7844 0000543  63.4320 296.6945 14.76431124416974"
      },
      "geometry": {
        "type": "Point",
        "coordinates": [
          -124.48125257141686,
          -11.39574306034208
        ]
      }
    },
    {
      "type": "Feature",
      "properties": {
        "norad_id": 43437,
        "name": "SENTINEL-3B",
        "group": "resource",
        "lat": -81.35109798959388,
        "lon": 150.5518864704917,
        "alt_km": 811.1278319535177,
        "timestamp": "2025-12-25T07:41:09.380638+00:00",
        "meta_object_name": "SENTINEL-3B",
        "meta_object_id": "2018-039A",
        "meta_epoch": "2025-12-24T22:00:21.623616",
        "meta_mean_motion": 14.26738665,
        "meta_eccentricity": 0.00015914,
        "meta_inclination": 98.625,
        "meta_ra_of_asc_node": 63.9267,
        "meta_arg_of_pericenter": 89.6451,
        "meta_mean_anomaly": 270.4911,
        "meta_ephemeris_type": 0,
        "meta_classification_type": "U",
        "meta_norad_cat_id": 43437,
        "meta_element_set_no": 999,
        "meta_rev_at_epoch": 39927,
        "meta_bstar": 7.868325e-05,
        "meta_mean_motion_dot": 1.47e-06,
        "meta_mean_motion_ddot": 0,
        "tle_line1": "1 43437U 18039A   25358.91691694  .00000147  00000+0  78683-4 0  9997",
        "tle_line2": "2 43437  98.6250  63.9267 0001591  89.6451 270.4911 14.26738665399277"
      },
      "geometry": {
        "type": "Point",
        "coordinates": [
          150.5518864704917,
          -81.35109798959388
        ]
      }
    },
    {
      "type": "Feature",
      "properties": {
        "norad_id": 43461,
        "name": "GAOFEN-5 01",
        "group": "resource",
        "lat": -17.151487175002103,
        "lon": -34.86700361281406,
        "alt_km": 696.7833970378524,
        "timestamp": "2025-12-25T07:41:09.380651+00:00",
        "meta_object_name": "GAOFEN-5 01",
        "meta_object_id": "2018-043A",
        "meta_epoch": "2025-12-24T20:15:17.532288",
        "meta_mean_motion": 14.60422427,
        "meta_eccentricity": 5.289e-05,
        "meta_inclination": 98.4345,
        "meta_ra_of_asc_node": 322.0236,
        "meta_arg_of_pericenter": 244.9883,
        "meta_mean_anomaly": 115.1262,
        "meta_ephemeris_type": 0,
        "meta_classification_type": "U",
        "meta_norad_cat_id": 43461,
        "meta_element_set_no": 999,
        "meta_rev_at_epoch": 40624,
        "meta_bstar": 0.00010643871,
        "meta_mean_motion_dot": 4.67e-06,
        "meta_mean_motion_ddot": 0,
        "tle_line1": "1 43461U 18043A   25358.84395292  .00000467  00000+0  10644-3 0  9993",
        "tle_line2": "2 43461  98.4345 322.0236 0000528 244.9883 115.1262 14.60422427406240"
      },
      "geometry": {
        "type": "Point",
        "coordinates": [
          -34.86700361281406,
          -17.151487175002103
        ]
      }
    },
    {
      "type": "Feature",
      "properties": {
        "norad_id": 43484,
        "name": "GAOFEN-6",
        "group": "resource",
        "lat": -11.650826649865458,
        "lon": 64.7836131838284,
        "alt_km": 637.5445958626615,
        "timestamp": "2025-12-25T07:41:09.380663+00:00",
        "meta_object_name": "GAOFEN-6",
        "meta_object_id": "2018-048A",
        "meta_epoch": "2025-12-24T23:36:25.804800",
        "meta_mean_motion": 14.76586031,
        "meta_eccentricity": 0.00125803,
        "meta_inclination": 97.8012,
        "meta_ra_of_asc_node": 62.8385,
        "meta_arg_of_pericenter": 27.2845,
        "meta_mean_anomaly": 332.9024,
        "meta_ephemeris_type": 0,
        "meta_classification_type": "U",
        "meta_norad_cat_id": 43484,
        "meta_element_set_no": 999,
        "meta_rev_at_epoch": 40768,
        "meta_bstar": 7.4237702e-05,
        "meta_mean_motion_dot": 4.69e-06,
        "meta_mean_motion_ddot": 0,
        "tle_line1": "1 43484U 18048A   25358.98363200  .00000469  00000+0  74238-4 0  9994",
        "tle_line2": "2 43484  97.8012  62.8385 0012580  27.2845 332.9024 14.76586031407687"
      },
      "geometry": {
        "type": "Point",
        "coordinates": [
          64.7836131838284,
          -11.650826649865458
        ]
      }
    },
    {
      "type": "Feature",
      "properties": {
        "norad_id": 43585,
        "name": "GAOFEN-11 01",
        "group": "resource",
        "lat": -27.10679565567228,
        "lon": -121.53608654045101,
        "alt_km": 421.8988637942348,
        "timestamp": "2025-12-25T07:41:09.380674+00:00",
        "meta_object_name": "GAOFEN-11 01",
        "meta_object_id": "2018-063A",
        "meta_epoch": "2025-12-24T23:02:41.131392",
        "meta_mean_motion": 15.49547866,
        "meta_eccentricity": 0.0003918,
        "meta_inclination": 97.1543,
        "meta_ra_of_asc_node": 61.7932,
        "meta_arg_of_pericenter": 249.5606,
        "meta_mean_anomaly": 110.5226,
        "meta_ephemeris_type": 0,
        "meta_classification_type": "U",
        "meta_norad_cat_id": 43585,
        "meta_element_set_no": 999,
        "meta_rev_at_epoch": 41331,
        "meta_bstar": 0.00012184883,
        "meta_mean_motion_dot": 6.629e-05,
        "meta_mean_motion_ddot": 0,
        "tle_line1": "1 43585U 18063A   25358.96019828  .00006629  00000+0  12185-3 0  9991",
        "tle_line2": "2 43585  97.1543  61.7932 0003918 249.5606 110.5226 15.49547866413311"
      },
      "geometry": {
        "type": "Point",
        "coordinates": [
          -121.53608654045101,
          -27.10679565567228
        ]
      }
    },
    {
      "type": "Feature",
      "properties": {
        "norad_id": 43613,
        "name": "ICESAT-2",
        "group": "resource",
        "lat": 64.6177933163005,
        "lon": -120.09914886490665,
        "alt_km": 473.37261353825124,
        "timestamp": "2025-12-25T07:41:09.380689+00:00",
        "meta_object_name": "ICESAT-2",
        "meta_object_id": "2018-070A",
        "meta_epoch": "2025-12-24T20:24:11.287296",
        "meta_mean_motion": 15.28224917,
        "meta_eccentricity": 0.00030562,
        "meta_inclination": 92.0036,
        "meta_ra_of_asc_node": 244.0056,
        "meta_arg_of_pericenter": 109.5368,
        "meta_mean_anomaly": 250.6211,
        "meta_ephemeris_type": 0,
        "meta_classification_type": "U",
        "meta_norad_cat_id": 43613,
        "meta_element_set_no": 999,
        "meta_rev_at_epoch": 40583,
        "meta_bstar": 0.00047730707,
        "meta_mean_motion_dot": 0.00013129,
        "meta_mean_motion_ddot": 0,
        "tle_line1": "1 43613U 18070A   25358.85013064  .00013129  00000+0  47731-3 0  9993",
        "tle_line2": "2 43613  92.0036 244.0056 0003056 109.5368 250.6211 15.28224917405834"
      },
      "geometry": {
        "type": "Point",
        "coordinates": [
          -120.09914886490665,
          64.6177933163005
        ]
      }
    },
    {
      "type": "Feature",
      "properties": {
        "norad_id": 43719,
        "name": "HYSIS",
        "group": "resource",
        "lat": 60.641160839419754,
        "lon": -103.27164672210846,
        "alt_km": 627.3296885073669,
        "timestamp": "2025-12-25T07:41:09.380700+00:00",
        "meta_object_name": "HYSIS",
        "meta_object_id": "2018-096A",
        "meta_epoch": "2025-12-24T23:01:57.582336",
        "meta_mean_motion": 14.78677949,
        "meta_eccentricity": 8.535e-05,
        "meta_inclination": 98.0079,
        "meta_ra_of_asc_node": 61.8769,
        "meta_arg_of_pericenter": 57.4747,
        "meta_mean_anomaly": 302.6546,
        "meta_ephemeris_type": 0,
        "meta_classification_type": "U",
        "meta_norad_cat_id": 43719,
        "meta_element_set_no": 999,
        "meta_rev_at_epoch": 38167,
        "meta_bstar": 0.00021306259,
        "meta_mean_motion_dot": 1.51e-05,
        "meta_mean_motion_ddot": 0,
        "tle_line1": "1 43719U 18096A   25358.95969424  .00001510  00000+0  21306-3 0  9990",
        "tle_line2": "2 43719  98.0079  61.8769 0000853  57.4747 302.6546 14.78677949381679"
      },
      "geometry": {
        "type": "Point",
        "coordinates": [
          -103.27164672210846,
          60.641160839419754
        ]
      }
    }
  ]
}